{"fetched_at":"2026-05-01T20:52:03Z","count":3319,"tles":[{"name":"2022-019F","line1":"1 51829U 22019F   23362.45911379  .00030936  00000+0  10412-2 0  9994","line2":"2 51829  97.4605  76.2941 0012230 107.5845 252.6733 15.30655636101443","category":"Other"},{"name":"STARLINK-31289","line1":"1 59173U 24044X   26120.20409075  .00000904  00000+0  42382-4 0  9992","line2":"2 59173  43.0024 176.1325 0000845 269.6195  90.4560 15.27573816121474","category":"Starlink"},{"name":"FENGYUN 1C DEB","line1":"1 29937U 99025JK  26104.83268561 -.00000141  00000+0 -61660-4 0  9997","line2":"2 29937  98.7919 127.0171 0032684  36.8462 136.3555 14.04384897986634","category":"Weather"},{"name":"STARLINK-1396","line1":"1 45681U 20035AA  23361.53985208  .00026177  00000+0  12894-2 0  9997","line2":"2 45681  53.0480  54.6146 0001503  33.0557 327.0530 15.17812919197926","category":"Starlink"},{"name":"ONEWEB-0636","line1":"1 56077U 23043AH  26120.82856902 -.00000142  00000+0 -41177-3 0  9999","line2":"2 56077  87.8956 268.6412 0002012 101.4908 258.6448 13.15547865150184","category":"Other"},{"name":"FENGYUN 1C DEB","line1":"1 31366U 99025BRW 23178.37216531  .00013188  00000+0  37019-2 0  9995","line2":"2 31366  98.8673 320.7472 0003346 242.6060 143.2382 14.46086799841777","category":"Weather"},{"name":"STARLINK-2142","line1":"1 47732U 21017L   23362.50638258 -.00000747  00000+0 -31270-4 0  9993","line2":"2 47732  53.0532 127.9997 0001172 104.2904 255.8216 15.06384482157371","category":"Starlink"},{"name":"STARLINK-6370","line1":"1 57373U 23099AX  26120.58610128  .00001808  00000+0  75187-4 0  9998","line2":"2 57373  43.0034 308.8007 0002066 268.3237  91.7378 15.27589750154130","category":"Starlink"},{"name":"STARLINK-36081","line1":"1 67498U 26012F   26121.08600554  .00033302  00000+0  12133-2 0  9997","line2":"2 67498  43.0030  18.6406 0001464 277.6787  82.3899 15.27605427 15778","category":"Starlink"},{"name":"COSMOS 2251 DEB","line1":"1 39546U 93036BUC 26104.65041998  .00005228  00000+0  46224-3 0  9990","line2":"2 39546  73.9956 248.6861 0040155  16.6277 343.6213 14.95967678662724","category":"Other"},{"name":"STARLINK-4521","line1":"1 53391U 22097D   26120.77708540  .00000233  00000+0  32752-4 0  9990","line2":"2 53391  53.2173 250.2900 0001307  93.5787 266.5355 15.08837150206538","category":"Starlink"},{"name":"STARLINK-32168","line1":"1 60335U 24136G   26120.49063104  .00004025  00000+0  14801-3 0  9998","line2":"2 60335  53.1610 195.1873 0000631  81.1127 278.9945 15.30181325 97592","category":"Starlink"},{"name":"STARLINK-34485","line1":"1 64684U 25139W   26120.91668981  .00011106  00000+0  33959-3 0  9997","line2":"2 64684  53.1606 244.4595 0000876  74.5482 158.0604 15.34375305  5875","category":"Starlink"},{"name":"STARLINK-11419 [DTC]","line1":"1 62883U 25024E   26120.68159513  .00274411  00000+0  20516-2 0  9993","line2":"2 62883  43.0004 228.0585 0002917 258.0187 102.0353 15.71076869 71642","category":"Starlink"},{"name":"STARLINK-36204","line1":"1 68549U 26070H   26121.16670139 -.02638963  00000+0 -25646-1 0  9994","line2":"2 68549  53.1588 121.4191 0000880  89.4782 251.4162 15.69220867  5762","category":"Starlink"},{"name":"STARLINK-34919","line1":"1 65802U 25218M   26121.14409083  .00005386  00000+0  37704-3 0  9995","line2":"2 65802  97.5510 344.6237 0002979  72.3228 287.8324 15.05658749 32863","category":"Starlink"},{"name":"STARLINK-2618","line1":"1 48693U 21044BH  26120.58622257  .00005212  00000+0  17954-3 0  9997","line2":"2 48693  53.1590 193.9776 0001321  84.8182 275.2970 15.31707909272314","category":"Starlink"},{"name":"STARLINK-30779","line1":"1 58160U 23166L   26120.85244416 -.00000299  00000+0  20149-5 0  9994","line2":"2 58160  53.1617 337.4637 0000595  69.8680 290.2385 15.30188652141165","category":"Starlink"},{"name":"MOLNIYA 1-80","line1":"1 21118U 91012A   26104.04114757  .00000957  00000+0  00000+0 0  9997","line2":"2 21118  64.8887 200.5317 6322235 257.0128  29.8132  2.05234556259645","category":"Other"},{"name":"GALAXY 32 (G-32)","line1":"1 54244U 22153B   26120.89669185 -.00000171  00000+0  00000+0 0  9993","line2":"2 54244   0.0163 303.4334 0002962  92.3856  54.8264  1.00272641 12671","category":"Other"},{"name":"IRIDIUM 33 DEB","line1":"1 36080U 97051VM  26098.33833441  .00001591  00000+0  42969-3 0  9991","line2":"2 36080  86.3183 317.1863 0018710 130.3074 229.9768 14.47165327491009","category":"Other"},{"name":"STARLINK-3593","line1":"1 51896U 22022AW  26120.42242484  .00002332  00000+0  16451-3 0  9997","line2":"2 51896  53.2159 127.1037 0001207  73.1133 286.9992 15.08856828231108","category":"Starlink"},{"name":"STARLINK-31408","line1":"1 59240U 24049K   26120.61244798  .00000697  00000+0  34826-4 0  9999","line2":"2 59240  43.0001 210.5921 0001145 280.6985  79.3738 15.27587385120347","category":"Starlink"},{"name":"FENGYUN 1C DEB","line1":"1 30009U 99025MJ  26104.87576219  .00000922  00000+0  58756-3 0  9991","line2":"2 30009  98.9999 163.9392 0062708 351.7563   8.2568 14.05244670982127","category":"Weather"},{"name":"STARLINK-1499","line1":"1 45762U 20038AJ  23362.46882716  .00010973  00000+0  43571-3 0  9997","line2":"2 45762  53.0113 174.5312 0002963 102.1617 257.9712 15.25845181197101","category":"Starlink"},{"name":"FENGYUN 1C DEB","line1":"1 31468U 99025BVG 26104.23519554  .00000703  00000+0  17349-3 0  9990","line2":"2 31468  98.1762 101.1308 0165623 152.2074 208.8091 14.47145820691432","category":"Weather"},{"name":"STARLINK-30194","line1":"1 57308U 23096U   23361.85452689  .00000233  00000+0  32296-4 0  9998","line2":"2 57308  43.0024 265.2378 0001212 256.0272 104.0436 15.02534170 25947","category":"Starlink"},{"name":"STARLINK-11516 [DTC]","line1":"1 62522U 25004M   26120.98034038  .00127863  00000+0  98225-3 0  9999","line2":"2 62522  42.9996 115.4337 0001556 264.7215  95.3475 15.70899350 75435","category":"Starlink"},{"name":"STARLINK-37009","line1":"1 68208U 26053B   26121.14583271  .00032297  00000+0  99799-3 0  9991","line2":"2 68208  97.2857 356.8837 0002283 100.5347 259.6153 15.33458236  8255","category":"Starlink"},{"name":"FM-6","line1":"1 39360U 13058A   26121.18336456 -.00000011  00000+0  00000+0 0  9997","line2":"2 39360   0.0113 272.5909 0000248 272.6892 343.5616  1.00263125 45605","category":"Other"},{"name":"STARLINK-32266","line1":"1 60369U 24138Q   26053.24719660  .11345096  11853-4  39761-2 0  9992","line2":"2 60369  53.1160 345.7193 0005322 152.5790 207.5532 16.24438573 88750","category":"Starlink"},{"name":"STARLINK-35600","line1":"1 66510U 25263AB  26120.99046861  .00015590  00000+0  57453-3 0  9996","line2":"2 66510  43.0004  55.6711 0000781 252.0989 107.9778 15.27598056 26899","category":"Starlink"},{"name":"STARLINK-11595 [DTC]","line1":"1 63669U 25085F   26120.92027355  .00277872  00000+0  20842-2 0  9994","line2":"2 63669  42.9980 323.8303 0003243 255.4593 104.5916 15.70988246 59102","category":"Starlink"},{"name":"UNKNOWN","line1":"1 85100U          26101.97544340  .00000211  00000+0  74093-4 0  9990","line2":"2 85100  74.0481   0.4811 0013036 202.9716 172.2055 14.40823222650667","category":"Other"},{"name":"GORIZONT 18","line1":"1 20107U 89052A   26103.94013887 -.00000258  00000+0  00000+0 0  9990","line2":"2 20107  12.4580 334.8976 0037129 346.4406 195.3541  0.99404829133775","category":"Other"},{"name":"HEAD-1","line1":"1 43011U 17072B   26121.17962487  .00000110  00000+0  62147-4 0  9997","line2":"2 43011  98.9576 138.4267 0008942 294.1916  65.8330 14.28767405440648","category":"Other"},{"name":"STARLINK-5297","line1":"1 54158U 22141B   26120.47809614  .00000462  00000+0  47083-4 0  9990","line2":"2 54158  53.2161 141.7661 0001414  92.3410 267.7744 15.08843086193539","category":"Starlink"},{"name":"FENGYUN 1C DEB","line1":"1 32461U 99025DBZ 26103.34837928  .00000909  00000+0  83852-3 0  9993","line2":"2 32461  98.3283 307.9460 0232717 149.2106  23.4588 13.73197171689637","category":"Weather"},{"name":"STARLINK-2714","line1":"1 48603U 21041BC  26120.72610744  .00013236  00000+0  45790-3 0  9993","line2":"2 48603  53.1594 232.1811 0000924  74.9277 285.1826 15.30221968274674","category":"Starlink"},{"name":"STARLINK-30830","line1":"1 58194U 23167V   26120.63668487 -.00004456  00000+0 -15242-3 0  9992","line2":"2 58194  43.0037 209.6691 0001013 213.4942 146.5846 15.27596819138930","category":"Starlink"},{"name":"STARLINK-11748 [DTC]","line1":"1 64373U 25127D   26120.35915478  .00200655  00000+0  15291-2 0  9990","line2":"2 64373  42.9999 133.5370 0001646 283.8025  76.2659 15.70850877 51621","category":"Starlink"},{"name":"FENGYUN 1C DEB","line1":"1 29936U 99025JJ  26104.88007230  .00000260  00000+0  99311-4 0  9999","line2":"2 29936  98.6634 223.7141 0113883 182.5708 177.4906 14.35447952  6983","category":"Weather"},{"name":"STARLINK-1395","line1":"1 45680U 20035Z   23362.45014320  .00001943  00000+0  14932-3 0  9996","line2":"2 45680  53.0526  58.0077 0001513  75.0145 285.1012 15.06387194197544","category":"Starlink"},{"name":"ONEWEB-0635","line1":"1 56076U 23043AG  26120.83649545 -.00000028  00000+0 -10868-3 0  9998","line2":"2 56076  87.8965 268.6299 0002078 101.7393 258.3971 13.15548123150208","category":"Other"},{"name":"STARLINK-32386","line1":"1 61213U 24171P   26120.87794323  .00000764  00000+0  37916-4 0  9998","line2":"2 61213  53.1610  79.6833 0001794 109.1976 250.9219 15.30206273 90366","category":"Starlink"},{"name":"STARLINK-36221","line1":"1 67215U 25304Z   26121.17773157  .00004708  00000+0  40200-3 0  9992","line2":"2 67215  70.0028  42.2448 0003109 266.7330  93.3473 14.98341289 21746","category":"Starlink"},{"name":"COSMOS 2251 DEB","line1":"1 35905U 93036AUU 26092.95016206  .00014228  00000+0  10313-2 0  9997","line2":"2 35905  74.0328 344.6789 0084650  35.2223 325.4517 15.01069563902508","category":"Other"},{"name":"2022-019E","line1":"1 51828U 22019E   23362.48075877  .00015895  00000+0  69855-3 0  9993","line2":"2 51828  97.4557  73.1418 0014721 114.7200 245.5570 15.21890101101263","category":"Other"}]}